     2.11           N: GPS NAV DATA                         RINEX VERSION / TYPE
teqc  2019Feb25                         20221121 12:27:09UTCPGM / RUN BY / DATE
OSX ker:10.11.6|Core i5|gcc 4.3 -m64|OSX ker:10.10+|=+      COMMENT
    7.4506D-09  1.4901D-08 -5.9605D-08 -1.1921D-07          ION ALPHA
    7.9872D+04  1.6384D+04 -1.3107D+05 -1.3107D+05          ION BETA
    2.793967723846D-09 5.329070518201D-15   589824     1548 DELTA-UTC: A0,A1,T,W
                                                            END OF HEADER
19 09  9 10 18  0  0.0 1.138588413596D-05-1.705302565824D-12 0.000000000000D+00
    7.800000000000D+01-2.268750000000D+01 4.961635243452D-09 1.264633393308D+00
   -1.024454832077D-06 5.831420305185D-03 7.072463631630D-06 5.153645952225D+03
    4.104000000000D+05 7.264316082001D-08 3.033164563913D+00-2.607703208923D-08
    9.579071295683D-01 2.358125000000D+02-2.637032913177D-01-8.149625178886D-09
   -3.935878230841D-10 1.000000000000D+00 1.548000000000D+03 0.000000000000D+00
    2.000000000000D+00 0.000000000000D+00-1.490116119385D-08 7.800000000000D+01
    4.046820000000D+05 4.000000000000D+00
 8 09  9 10 18  0  0.0-2.207062207162D-04-1.705302565824D-12 0.000000000000D+00
    2.700000000000D+01-7.568750000000D+01 3.649437728016D-09-1.523582603171D+00
   -4.317611455917D-06 1.093100465368D-02 9.667128324509D-06 5.153631109238D+03
    4.104000000000D+05-3.166496753693D-08 9.272651517670D-01-1.378357410431D-07
    9.899085313094D-01 2.086562500000D+02 3.018882220516D+00-7.649247193278D-09
    3.839445642608D-10 1.000000000000D+00 1.548000000000D+03 0.000000000000D+00
    2.000000000000D+00 0.000000000000D+00-3.725290298462D-09 2.700000000000D+01
    4.061520000000D+05 4.000000000000D+00
 8 09  9 10 17 59 44.0-2.206964418292D-04-1.591615728103D-12 0.000000000000D+00
    4.800000000000D+01-7.568750000000D+01 3.649437728016D-09-1.525915944341D+00
   -4.317611455917D-06 1.093100418802D-02 9.667128324509D-06 5.153631093979D+03
    4.103840000000D+05-3.166496753693D-08 9.272652790408D-01-1.378357410431D-07
    9.899085181432D-01 2.086562500000D+02 3.018881832843D+00-7.649247193278D-09
    3.839445642608D-10 1.000000000000D+00 1.548000000000D+03 0.000000000000D+00
    2.000000000000D+00 0.000000000000D+00-3.725290298462D-09 4.800000000000D+01
    4.087980000000D+05 4.000000000000D+00
18 09  9 10 18  0  0.0 1.180777326226D-05 2.955857780762D-12 0.000000000000D+00
    5.400000000000D+01 9.606250000000D+01 4.741268921453D-09-3.038794339353D+00
    4.921108484268D-06 1.090818119701D-02 5.358830094337D-06 5.153629482269D+03
    4.104000000000D+05-7.450580596924D-09-1.202621891972D+00-1.415610313416D-07
    9.405585537648D-01 2.632812500000D+02-2.381484717209D+00-8.162840015052D-09
    7.786038605475D-11 1.000000000000D+00 1.548000000000D+03 0.000000000000D+00
    2.000000000000D+00 0.000000000000D+00-1.071020960808D-08 5.400000000000D+01
    4.092420000000D+05 4.000000000000D+00
15 09  9 10 17 59 44.0-3.178017213941D-04-1.250555214938D-12 0.000000000000D+00
    2.100000000000D+01-2.731250000000D+01 4.628049919713D-09 1.628232254866D+00
   -1.436099410057D-06 1.665055518970D-03 2.877786755562D-06 5.153660860062D+03
    4.103840000000D+05-1.490116119385D-08-1.980007920763D-01 5.401670932770D-08
    9.559903265258D-01 3.216562500000D+02-5.175101671186D-01-8.386063598924D-09
   -8.893227581483D-11 1.000000000000D+00 1.548000000000D+03 0.000000000000D+00
    2.000000000000D+00 0.000000000000D+00-9.778887033463D-09 2.100000000000D+01
    4.103820000000D+05 4.000000000000D+00
16 09  9 10 20  0  0.0 1.407368108630D-05-3.865352482535D-12 0.000000000000D+00
    3.600000000000D+01-2.656250000000D+01 4.510902182897D-09-2.194240094679D+00
   -1.365318894386D-06 5.297256051563D-03 7.994472980499D-06 5.153615003586D+03
    4.176000000000D+05-1.043081283569D-07 1.934732044258D+00-6.705522537231D-08
    9.691515787448D-01 2.350625000000D+02-2.763640441517D-01-7.886399928784D-09
    4.528760069606D-10 1.000000000000D+00 1.548000000000D+03 0.000000000000D+00
    2.000000000000D+00 0.000000000000D+00-9.778887033463D-09 3.600000000000D+01
    4.104180000000D+05 4.000000000000D+00
 3 09  9 10 20  0  0.0 4.454241134226D-04 5.115907697473D-12 0.000000000000D+00
    7.100000000000D+01-2.481250000000D+01 5.776669192887D-09 1.619491857696D+00
   -1.324340701103D-06 1.239711546805D-02 7.085502147675D-06 5.153648454666D+03
    4.176000000000D+05-3.743916749954D-07 2.842756967667D+00-3.725290298462D-09
    9.268248412205D-01 2.285937500000D+02 9.372944997238D-01-8.615001706544D-09
   -2.535819912792D-11 1.000000000000D+00 1.548000000000D+03 0.000000000000D+00
    2.000000000000D+00 0.000000000000D+00-4.656612873077D-09 7.100000000000D+01
    4.104180000000D+05 4.000000000000D+00
19 09  9 10 20  0  0.0 1.137377694249D-05-1.705302565824D-12 0.000000000000D+00
    7.900000000000D+01-2.112500000000D+01 5.011637326239D-09 2.314749062795D+00
   -9.015202522278D-07 5.831392947584D-03 7.530674338341D-06 5.153646879196D+03
    4.176000000000D+05 2.048909664154D-08 3.033104758359D+00 2.384185791016D-07
    9.579049746900D-01 2.324375000000D+02-2.636174224152D-01-8.137838973658D-09
   -1.775073938955D-10 1.000000000000D+00 1.548000000000D+03 0.000000000000D+00
    2.800000000000D+00 0.000000000000D+00-1.490116119385D-08 7.900000000000D+01
    4.104180000000D+05 4.000000000000D+00
 6 09  9 10 20  0  0.0 2.366965636611D-04 6.707523425575D-12 0.000000000000D+00
    8.100000000000D+01-1.765625000000D+01 5.516658362393D-09-2.319463932194D+00
   -7.785856723785D-07 5.858719698153D-03 6.821006536484D-06 5.153692800522D+03
    4.176000000000D+05-2.235174179077D-08 2.911200358037D+00 1.192092895508D-07
    9.342996533308D-01 2.314062500000D+02-1.260765714398D+00-8.303560162325D-09
   -1.785788670980D-11 1.000000000000D+00 1.548000000000D+03 0.000000000000D+00
    2.000000000000D+00 0.000000000000D+00-5.122274160385D-09 8.100000000000D+01
    4.104180000000D+05 4.000000000000D+00
 7 09  9 10 20  0  0.0 1.171417534351D-05-6.821210263297D-13 0.000000000000D+00
    1.320000000000D+02-6.550000000000D+01 4.147315609485D-09 2.065231003447D-01
   -3.391876816750D-06 3.105438081548D-03 8.029863238335D-06 5.153655309677D+03
    4.176000000000D+05 4.656612873077D-08 8.646647790902D-01 5.587935447693D-09
    9.687093078881D-01 2.281250000000D+02 2.936707541657D+00-7.944259481724D-09
    2.014369620866D-10 1.000000000000D+00 1.548000000000D+03 0.000000000000D+00
    2.800000000000D+00 0.000000000000D+00-1.071020960808D-08 1.320000000000D+02
    4.104180000000D+05 4.000000000000D+00
21 09  9 10 20  0  0.0-8.399598300457D-06-2.273736754432D-12 0.000000000000D+00
    4.900000000000D+01 5.003125000000D+01 5.127356432119D-09-7.494949411641D-01
    2.516433596611D-06 1.555172307417D-02 9.823590517044D-06 5.153757080078D+03
    4.176000000000D+05 2.551823854446D-07-2.261129766571D+00 1.769512891769D-07
    9.336386864617D-01 1.755000000000D+02-2.560377936875D+00-8.317132156224D-09
   -4.396611707954D-10 1.000000000000D+00 1.548000000000D+03 0.000000000000D+00
    2.000000000000D+00 0.000000000000D+00-1.210719347000D-08 4.900000000000D+01
    4.104180000000D+05 4.000000000000D+00
18 09  9 10 20  0  0.0 1.182872802019D-05 2.955857780762D-12 0.000000000000D+00
    5.500000000000D+01 1.033125000000D+02 4.820200780710D-09-1.988647244923D+00
    5.338340997696D-06 1.090811088216D-02 5.291774868965D-06 5.153628858566D+03
    4.176000000000D+05 6.332993507385D-08-1.202680765647D+00-1.825392246246D-07
    9.405591740421D-01 2.689687500000D+02-2.381422584152D+00-8.185340952306D-09
    7.357449324439D-11 1.000000000000D+00 1.548000000000D+03 0.000000000000D+00
    2.000000000000D+00 0.000000000000D+00-1.071020960808D-08 5.500000000000D+01
    4.104180000000D+05 4.000000000000D+00
15 09  9 10 20  0  0.0-3.178105689585D-04-1.250555214938D-12 0.000000000000D+00
    2.200000000000D+01-2.956250000000D+01 4.624478342371D-09 2.680911344501D+00
   -1.538544893265D-06 1.665029791184D-03 2.754852175713D-06 5.153660472870D+03
    4.176000000000D+05-2.235174179077D-08-1.980610218766D-01-1.117587089539D-08
    9.559894663300D-01 3.233125000000D+02-5.176658011213D-01-8.384634967987D-09
   -1.407201472733D-10 1.000000000000D+00 1.548000000000D+03 0.000000000000D+00
    2.000000000000D+00 0.000000000000D+00-9.778887033463D-09 2.200000000000D+01
    4.104180000000D+05 4.000000000000D+00
 8 09  9 10 19 59 44.0-2.207080833614D-04-1.591615728103D-12 0.000000000000D+00
    4.900000000000D+01-5.687500000000D+01 3.734084111020D-09-4.760184705486D-01
   -3.093853592873D-06 1.092913839966D-02 8.409842848778D-06 5.153623817444D+03
    4.175840000000D+05 1.974403858185D-07 9.272107663244D-01-1.098960638046D-07
    9.899105589139D-01 2.284062500000D+02 3.019187293064D+00-7.759251775410D-09
    2.375098932404D-10 1.000000000000D+00 1.548000000000D+03 0.000000000000D+00
    2.000000000000D+00 0.000000000000D+00-3.725290298462D-09 4.900000000000D+01
    4.104180000000D+05 4.000000000000D+00
 6 09  9 10 19 59 44.0 2.366998232901D-04 6.821210263297D-12 0.000000000000D+00
    3.000000000000D+00-1.765625000000D+01 5.516658362393D-09-2.321797163646D+00
   -7.785856723785D-07 5.858716089278D-03 6.821006536484D-06 5.153692802429D+03
    4.175840000000D+05-2.235174179077D-08 2.911200475071D+00 1.192092895508D-07
    9.342996679599D-01 2.314062500000D+02-1.260766233734D+00-8.303560162325D-09
   -1.821504444400D-11 1.000000000000D+00 1.548000000000D+03 0.000000000000D+00
    2.000000000000D+00 0.000000000000D+00-5.122274160385D-09 3.000000000000D+00
    4.115280000000D+05 4.000000000000D+00
